STARLINK-1007           
1 44713U 19074A   23256.83504725 -.00003108  00000+0 -18988-3 0  9992
2 44713  53.0534 302.1399 0001490  92.2929 267.8230 15.06387510211913
STARLINK-1008           
1 44714U 19074B   23256.61482705  .00013203  00000+0  90310-3 0  9996
2 44714  53.0546 303.1267 0001415  89.0891 271.0261 15.06420220211884
STARLINK-1009           
1 44715U 19074C   23256.53742509  .00012820  00000+0  87760-3 0  9998
2 44715  53.0541 303.4761 0001404 112.3403 247.7735 15.06416143211862
STARLINK-1010           
1 44716U 19074D   23256.82124336  .00009113  00000+0  62989-3 0  9990
2 44716  53.0536 302.2012 0001669  73.9199 286.1974 15.06398296211893
STARLINK-1011           
1 44717U 19074E   23256.88575195  .00011351  00000+0  78044-3 0  9996
2 44717  53.0546 321.9133 0001449  93.5916 266.5239 15.06363016211649
STARLINK-1012           
1 44718U 19074F   23256.85811033  .00009918  00000+0  68370-3 0  9995
2 44718  53.0529 302.0360 0001399  82.2131 277.9017 15.06403294211914
STARLINK-1013           
1 44719U 19074G   23256.86548122  .00003735  00000+0  26955-3 0  9997
2 44719  53.0540 302.0009 0001514 102.0492 258.0667 15.06390869213048
STARLINK-1014           
1 44720U 19074H   23256.41852946  .00017212  00000+0  11708-2 0  9996
2 44720  53.0540 303.9997 0001421  80.9235 279.1915 15.06424209211855
STARLINK-1015           
1 44721U 19074J   23256.87284890  .00004314  00000+0  30838-3 0  9999
2 44721  53.0532 301.9712 0001454  86.5570 273.5585 15.06390393211914
STARLINK-1017           
1 44723U 19074L   23256.82493464  .00003890  00000+0  27999-3 0  9997
2 44723  53.0547 302.1821 0001700  89.5396 270.5788 15.06388425211914
STARLINK-1019           
1 44724U 19074M   23256.85442248  .00014674  00000+0  10021-2 0  9994
2 44724  53.0537 302.0534 0001467  89.8016 270.3141 15.06395463211917
STARLINK-1020           
1 44725U 19074N   23256.66090413  .00017399  00000+0  11838-2 0  9991
2 44725  53.0544 322.9166 0001267 111.5196 248.5928 15.06409196211603
STARLINK-1021           
1 44726U 19074P   23256.85074923  .00007008  00000+0  48883-3 0  9998
2 44726  53.0540 302.0721 0001653 100.6506 259.4669 15.06406163211917
STARLINK-1024           
1 44729U 19074S   23256.33059559  .00050594  00000+0  81562-3 0  9991
2 44729  53.0170 235.5346 0008770  76.3761 283.8224 15.52410544212751
STARLINK-1026           
1 44731U 19074U   23256.91667824  .00570332  00000+0  18036-2 0  9990
2 44731  53.0511 270.1999 0001162  88.8599 289.9417 15.89340752  5986
STARLINK-1027           
1 44732U 19074V   23256.91524002  .00022359  00000+0  15153-2 0  9999
2 44732  53.0548 321.7783 0001743  79.1623 280.9562 15.06397202211642
STARLINK-1028           
1 44733U 19074W   23256.64800725  .00000671  00000+0  63961-4 0  9994
2 44733  53.0532 302.9790 0001277  89.4673 270.6462 15.06400468211886
STARLINK-1029           
1 44734U 19074X   23256.33101970  .00017394  00000+0  11831-2 0  9994
2 44734  53.0529 224.3985 0001496  89.5759 270.5401 15.06420459212936
STARLINK-1030           
1 44735U 19074Y   23256.45818167  .00025443  00000+0  17207-2 0  9998
2 44735  53.0536 323.8328 0001553  85.2855 274.8311 15.06402628211579
STARLINK-1031           
1 44736U 19074Z   23256.47292480  .00019158  00000+0  13012-2 0  9991
2 44736  53.0557 323.7648 0001604  79.0139 281.1030 15.06409185211585
STARLINK-1032           
1 44737U 19074AA  23256.88206448  .00013620  00000+0  93232-3 0  9997
2 44737  53.0548 321.9289 0001067  95.9951 264.1159 15.06367559211647
STARLINK-1033           
1 44738U 19074AB  23256.91667824  .00268794  00000+0  10689-2 0  9999
2 44738  53.0431 258.6488 0006281  55.2904 320.6652 15.85390509212696
STARLINK-1035           
1 44740U 19074AD  23256.48029504  .00028657  00000+0  19349-2 0  9995
2 44740  53.0555 323.7320 0001504  78.9853 281.1305 15.06400290211588
STARLINK-1036           
1 44741U 19074AE  23256.88944012  .00026044  00000+0  17615-2 0  9992
2 44741  53.0545 321.8965 0001385  80.7907 279.3238 15.06386584211640
STARLINK-1038           
1 44743U 19074AG  23256.47476156  .00028981  00000+0  19563-2 0  9994
2 44743  53.0565 343.7557 0001412  75.1631 284.9514 15.06403618211396
STARLINK-1039           
1 44744U 19074AH  23256.55217222  .00014302  00000+0  97670-3 0  9999
2 44744  53.0554 343.4101 0001369  89.8942 270.2204 15.06415255211311
STARLINK-1041           
1 44746U 19074AK  23256.47107206  .00008192  00000+0  56799-3 0  9999
2 44746  53.0566 343.7714 0000693  77.5619 282.5448 15.06411957211303
STARLINK-1042           
1 44747U 19074AL  23256.76595015  .00029946  00000+0  20204-2 0  9992
2 44747  53.0546 342.4482 0001440  80.1750 279.9402 15.06407157211359
STARLINK-1043           
1 44748U 19074AM  23256.92814057  .00026426  00000+0  17876-2 0  9992
2 44748  53.0555 341.7179 0001699  78.3646 281.7533 15.06373730211371
STARLINK-1046           
1 44751U 19074AQ  23256.47845110  .00007689  00000+0  53450-3 0  9999
2 44751  53.0564 343.7404 0001710 109.2129 250.9045 15.06402209211305
STARLINK-1047           
1 44752U 19074AR  23256.89681067  .00016375  00000+0  11157-2 0  9994
2 44752  53.0550 321.8612 0001116  86.2769 273.8347 15.06398097211648
STARLINK-1048           
1 44753U 19074AS  23256.83599227 -.00001111  00000+0 -55702-4 0  9995
2 44753  53.0536 302.1380 0001433  97.4249 262.6903 15.06389067211917
STARLINK-1049           
1 44754U 19074AT  23256.91667824  .00201523  00000+0  11252-2 0  9991
2 44754  53.0378 224.4974 0001899 140.8730 233.4179 15.78290355213172
STARLINK-1052           
1 44757U 19074AW  23256.90310399  .00027324  00000+0  18043-2 0  9995
2 44757  53.0546 321.7831 0001752  40.3002 319.8117 15.07249738211641
STARLINK-1053           
1 44758U 19074AX  23256.72541328  .00024963  00000+0  16880-2 0  9997
2 44758  53.0558 342.7166 0001356 101.2751 258.8390 15.06417660211349
STARLINK-1054           
1 44759U 19074AY  23256.50793564  .00026826  00000+0  18128-2 0  9992
2 44759  53.0550 343.6074 0001549  85.9728 274.1438 15.06403474208951
STARLINK-1055           
1 44760U 19074AZ  23256.47173341  .00010848  00000+0  50738-3 0  9996
2 44760  53.0519 329.5875 0001603  89.2445 270.8734 15.20275491211514
STARLINK-1056           
1 44761U 19074BA  23256.57059760  .00027988  00000+0  18901-2 0  9994
2 44761  53.0545 343.3274 0001157 106.6833 253.4283 15.06405564211493
STARLINK-1057           
1 44762U 19074BB  23256.90417992 -.00001290  00000+0 -67789-4 0  9997
2 44762  53.0537 321.8297 0001175  97.8230 262.2893 15.06378958211641
STARLINK-1058           
1 44763U 19074BC  23256.72446024  .00026796  00000+0  18104-2 0  9997
2 44763  53.0563 342.6261 0001614  87.5548 272.5626 15.06411945211348
STARLINK-1059           
1 44764U 19074BD  23256.83252895  .00010544  00000+0  44222-3 0  9996
2 44764  53.0864 294.5428 0006830  44.0652 316.0888 15.24033855212033
STARLINK-1060           
1 44765U 19074BE  23256.38815367  .00021897  00000+0  14844-2 0  9995
2 44765  53.0538 324.1469 0001184  88.6006 271.5119 15.06399375211562
STARLINK-1061           
1 44766U 19074BF  23256.71803346  .00010903  00000+0  74944-3 0  9991
2 44766  53.0557 342.6638 0001281  82.3755 277.7379 15.06414905211346
STARLINK-1062           
1 44767U 19074BG  23256.70971700  .00003137  00000+0  22939-3 0  9999
2 44767  53.0549 342.6920 0001450  88.5247 271.5908 15.06403115211345
STARLINK-1063           
1 44768U 19074BH  23256.53373666  .00021408  00000+0  14512-2 0  9996
2 44768  53.0566 343.4884 0001468 105.1676 254.9476 15.06414259211485
STARLINK-1067           
1 44771U 19074BL  23256.58902782  .00033966  00000+0  22876-2 0  9996
2 44771  53.0560 343.2426 0001570  78.0824 282.0341 15.06409330211320
STARLINK-1068           
1 44772U 19074BM  23256.51346303  .00012808  00000+0  87677-3 0  9994
2 44772  53.0542 323.5836 0001282 100.8751 259.2382 15.06416701211589
STARLINK-1073           
1 44914U 20001A   23256.86178562  .00004227  00000+0  30244-3 0  9996
2 44914  53.0545 102.0133 0001162  88.2597 271.8525 15.06407855203012
STARLINK-1084           
1 44915U 20001B   23256.89127088  .00002160  00000+0  16384-3 0  9990
2 44915  53.0532 101.8821 0001240  92.0307 268.0824 15.06402254203028
STARLINK-1098           
1 44917U 20001D   23256.89495861  .00019234  00000+0  13069-2 0  9995
2 44917  53.0529 101.8657 0001248  83.3795 276.7336 15.06391873203023
STARLINK-1099           
1 44918U 20001E   23256.84241648  .00020443  00000+0  13876-2 0  9993
2 44918  53.0533 102.1323 0001075  74.9997 285.1111 15.06391921203750
STARLINK-1102           
1 44920U 20001G   23256.75252100  .00011334  00000+0  50321-3 0  9997
2 44920  53.0604  82.6286 0002347 223.2303 136.8509 15.22026087203282
STARLINK-1103           
1 44921U 20001H   23256.87559538  .00009853  00000+0  67931-3 0  9994
2 44921  53.0529 101.9451 0001063  88.9447 271.1663 15.06407791202995
STARLINK-1104           
1 44922U 20001J   23256.84335921  .00016046  00000+0  10934-2 0  9992
2 44922  53.0536 102.0980 0001150  92.2045 267.9075 15.06410075203015
STARLINK-1106           
1 44923U 20001K   23256.87418431  .00014999  00000+0  71112-3 0  9995
2 44923  53.0524  90.1888 0003322  87.8141 272.3234 15.19504266203182
STARLINK-1111           
1 44924U 20001L   23256.85811353 -.00009500  00000+0 -62008-3 0  9992
2 44924  53.0535 102.0551 0001173  90.1745 269.9378 15.06378207203017
STARLINK-1112           
1 44925U 20001M   23256.87284382  .00014692  00000+0  10029-2 0  9992
2 44925  53.0539 101.9687 0001163  82.9641 277.1480 15.06408580203016
STARLINK-1113           
1 44926U 20001N   23256.86916753  .00018764  00000+0  12754-2 0  9997
2 44926  53.0534 102.0718 0001237  77.4754 282.6374 15.06394210203708
STARLINK-1114           
1 44927U 20001P   23256.88390046 -.00000852  00000+0 -38295-4 0  9992
2 44927  53.0535 101.9168 0001252 108.7260 251.3865 15.06401756203021
STARLINK-1119           
